start=new Date('2021-11-24T00:00:00.000Z').valueOf();
sats=[{"LAUNCH_DATE":"2021-03-04","OBJECT_NAME":"STARLINK-2144","RA_OF_ASC_NODE":"46.4344","MEAN_MOTION":"15.06394673","CLASSIFICATION_TYPE":"U","SEMIMAJOR_AXIS":"6925.365","PERIAPSIS":"546.253","ECCENTRICITY":"0.00014100","NORAD_CAT_ID":"47734","FILE":"3222563","MEAN_ANOMALY":"287.5271","REF_FRAME":"TEME","ARG_OF_PERICENTER":"72.5872","OBJECT_ID":"2021-017N","TLE_LINE1":"1 47734U 21017N   21327.62740188 -.00000537  00000-0 -17191-4 0  9997","REV_AT_EPOCH":"4155","EPHEMERIS_TYPE":"0","CENTER_NAME":"EARTH","APOAPSIS":"548.206","BSTAR":"-0.00001719100000","MEAN_MOTION_DDOT":"0.0000000000000","EPOCH":"2021-11-23T15:03:27.522432","PERIOD":"95.592","ELEMENT_SET_NO":"999","SITE":"AFETR","COUNTRY_CODE":"US","TIME_SYSTEM":"UTC","MEAN_MOTION_DOT":"-0.00000537","TLE_LINE2":"2 47734  53.0570  46.4344 0001410  72.5872 287.5271 15.06394673 41550","MEAN_ELEMENT_THEORY":"SGP4","GP_ID":"190363512","OBJECT_TYPE":"PAYLOAD","INCLINATION":"53.0570","DECAY_DATE":null,"RCS_SIZE":"LARGE"},{"RA_OF_ASC_NODE":"332.3083","OBJECT_NAME":"STARLINK-2146","MEAN_MOTION":"15.06397924","CLASSIFICATION_TYPE":"U","LAUNCH_DATE":"2021-03-04","ECCENTRICITY":"0.00013500","FILE":"3222418","NORAD_CAT_ID":"47735","SEMIMAJOR_AXIS":"6925.355","PERIAPSIS":"546.285","ARG_OF_PERICENTER":"71.0543","MEAN_ANOMALY":"289.0592","REF_FRAME":"TEME","CENTER_NAME":"EARTH","APOAPSIS":"548.155","BSTAR":"0.00012968000000","MEAN_MOTION_DDOT":"0.0000000000000","OBJECT_ID":"2021-017P","TLE_LINE1":"1 47735U 21017P   21327.42879436  .00001651  00000-0  12968-3 0  9997","EPHEMERIS_TYPE":"0","REV_AT_EPOCH":"4255","PERIOD":"95.592","ELEMENT_SET_NO":"999","EPOCH":"2021-11-23T10:17:27.832704","TLE_LINE2":"2 47735  53.0542 332.3083 0001350  71.0543 289.0592 15.06397924 42555","MEAN_MOTION_DOT":"0.00001651","MEAN_ELEMENT_THEORY":"SGP4","SITE":"AFETR","COUNTRY_CODE":"US","TIME_SYSTEM":"UTC","GP_ID":"190336972","OBJECT_TYPE":"PAYLOAD","INCLINATION":"53.0542","DECAY_DATE":null,"RCS_SIZE":"LARGE"},{"SEMIMAJOR_AXIS":"6925.361","PERIAPSIS":"546.455","ECCENTRICITY":"0.00011130","NORAD_CAT_ID":"47736","FILE":"3222563","LAUNCH_DATE":"2021-03-04","OBJECT_NAME":"STARLINK-2147","RA_OF_ASC_NODE":"36.5797","MEAN_MOTION":"15.06395986","CLASSIFICATION_TYPE":"U","OBJECT_ID":"2021-017Q","TLE_LINE1":"1 47736U 21017Q   21327.59513765 -.00000970  00000-0 -46242-4 0  9994","EPHEMERIS_TYPE":"0","REV_AT_EPOCH":"4172","CENTER_NAME":"EARTH","APOAPSIS":"547.997","MEAN_MOTION_DDOT":"0.0000000000000","BSTAR":"-0.00004624200000","MEAN_ANOMALY":"277.9156","REF_FRAME":"TEME","ARG_OF_PERICENTER":"82.1959","SITE":"AFETR","COUNTRY_CODE":"US","TIME_SYSTEM":"UTC","TLE_LINE2":"2 47736  53.0575  36.5797 0001113  82.1959 277.9156 15.06395986 41724","MEAN_MOTION_DOT":"-0.00000970","MEAN_ELEMENT_THEORY":"SGP4","EPOCH":"2021-11-23T14:16:59.892960","PERIOD":"95.592","ELEMENT_SET_NO":"999","DECAY_DATE":null,"RCS_SIZE":"LARGE","INCLINATION":"53.0575","GP_ID":"190364014","OBJECT_TYPE":"PAYLOAD"},{"OBJECT_ID":"2021-017R","TLE_LINE1":"1 47737U 21017R   21327.41131276  .00001224  00000-0  10109-3 0  9992","EPHEMERIS_TYPE":"0","REV_AT_EPOCH":"4260","CENTER_NAME":"EARTH","APOAPSIS":"548.423","MEAN_MOTION_DDOT":"0.0000000000000","BSTAR":"0.00010109000000","MEAN_ANOMALY":"305.8991","REF_FRAME":"TEME","ARG_OF_PERICENTER":"54.2159","SEMIMAJOR_AXIS":"6925.362","PERIAPSIS":"546.031","ECCENTRICITY":"0.00017270","NORAD_CAT_ID":"47737","FILE":"3222418","LAUNCH_DATE":"2021-03-04","RA_OF_ASC_NODE":"332.3933","OBJECT_NAME":"STARLINK-2148","MEAN_MOTION":"15.06395510","CLASSIFICATION_TYPE":"U","DECAY_DATE":null,"RCS_SIZE":"LARGE","INCLINATION":"53.0557","GP_ID":"190337972","OBJECT_TYPE":"PAYLOAD","SITE":"AFETR","COUNTRY_CODE":"US","TIME_SYSTEM":"UTC","MEAN_MOTION_DOT":"0.00001224","TLE_LINE2":"2 47737  53.0557 332.3933 0001727  54.2159 305.8991 15.06395510 42606","MEAN_ELEMENT_THEORY":"SGP4","EPOCH":"2021-11-23T09:52:17.422464","PERIOD":"95.592","ELEMENT_SET_NO":"999"},{"ARG_OF_PERICENTER":"13.4114","MEAN_ANOMALY":"346.7026","REF_FRAME":"TEME","CENTER_NAME":"EARTH","MEAN_MOTION_DDOT":"0.0000000000000","BSTAR":"0.00002999100000","APOAPSIS":"551.162","TLE_LINE1":"1 47738U 21017S   21327.60988142  .00000164  00000-0  29991-4 0  9998","OBJECT_ID":"2021-017S","REV_AT_EPOCH":"4172","EPHEMERIS_TYPE":"0","OBJECT_NAME":"STARLINK-2149","RA_OF_ASC_NODE":"36.5215","CLASSIFICATION_TYPE":"U","MEAN_MOTION":"15.06403592","LAUNCH_DATE":"2021-03-04","NORAD_CAT_ID":"47738","FILE":"3222563","ECCENTRICITY":"0.00057170","PERIAPSIS":"543.243","SEMIMAJOR_AXIS":"6925.338","OBJECT_TYPE":"PAYLOAD","GP_ID":"190363012","DECAY_DATE":null,"RCS_SIZE":"LARGE","INCLINATION":"53.0560","PERIOD":"95.592","ELEMENT_SET_NO":"999","EPOCH":"2021-11-23T14:38:13.754688","MEAN_MOTION_DOT":"0.00000164","TLE_LINE2":"2 47738  53.0560  36.5215 0005717  13.4114 346.7026 15.06403592 41723","MEAN_ELEMENT_THEORY":"SGP4","COUNTRY_CODE":"US","SITE":"AFETR","TIME_SYSTEM":"UTC"},{"PERIOD":"95.592","ELEMENT_SET_NO":"999","EPOCH":"2021-11-23T15:46:33.985056","MEAN_MOTION_DOT":"0.00001164","TLE_LINE2":"2 47739  53.0559  61.3030 0001264  88.7773 271.3361 15.06396947 41384","MEAN_ELEMENT_THEORY":"SGP4","SITE":"AFETR","COUNTRY_CODE":"US","TIME_SYSTEM":"UTC","GP_ID":"190363764","OBJECT_TYPE":"PAYLOAD","INCLINATION":"53.0559","DECAY_DATE":null,"RCS_SIZE":"LARGE","RA_OF_ASC_NODE":"61.3030","OBJECT_NAME":"STARLINK-2150","MEAN_MOTION":"15.06396947","CLASSIFICATION_TYPE":"U","LAUNCH_DATE":"2021-03-04","ECCENTRICITY":"0.00012640","FILE":"3222563","NORAD_CAT_ID":"47739","SEMIMAJOR_AXIS":"6925.358","PERIAPSIS":"546.348","ARG_OF_PERICENTER":"88.7773","MEAN_ANOMALY":"271.3361","REF_FRAME":"TEME","CENTER_NAME":"EARTH","APOAPSIS":"548.098","BSTAR":"0.00009703300000","MEAN_MOTION_DDOT":"0.0000000000000","OBJECT_ID":"2021-017T","TLE_LINE1":"1 47739U 21017T   21327.65733779  .00001164  00000-0  97033-4 0  9991","EPHEMERIS_TYPE":"0","REV_AT_EPOCH":"4138"},{"MEAN_ANOMALY":"283.6762","REF_FRAME":"TEME","ARG_OF_PERICENTER":"76.4360","OBJECT_ID":"2021-017U","TLE_LINE1":"1 47740U 21017U   21327.63845133  .00000324  00000-0  40635-4 0  9992","EPHEMERIS_TYPE":"0","REV_AT_EPOCH":"4158","CENTER_NAME":"EARTH","APOAPSIS":"548.027","BSTAR":"0.00004063500000","MEAN_MOTION_DDOT":"0.0000000000000","LAUNCH_DATE":"2021-03-04","OBJECT_NAME":"STARLINK-2152","RA_OF_ASC_NODE":"46.3969","MEAN_MOTION":"15.06403906","CLASSIFICATION_TYPE":"U","SEMIMAJOR_AXIS":"6925.337","PERIAPSIS":"546.376","ECCENTRICITY":"0.00011920","NORAD_CAT_ID":"47740","FILE":"3222563","GP_ID":"190364515","OBJECT_TYPE":"PAYLOAD","INCLINATION":"53.0550","DECAY_DATE":null,"RCS_SIZE":"LARGE","EPOCH":"2021-11-23T15:19:22.194912","PERIOD":"95.592","ELEMENT_SET_NO":"999","SITE":"AFETR","COUNTRY_CODE":"US","TIME_SYSTEM":"UTC","MEAN_MOTION_DOT":"0.00000324","TLE_LINE2":"2 47740  53.0550  46.3969 0001192  76.4360 283.6762 15.06403906 41584","MEAN_ELEMENT_THEORY":"SGP4"},{"SEMIMAJOR_AXIS":"6925.357","PERIAPSIS":"546.128","ECCENTRICITY":"0.00015800","FILE":"3222418","NORAD_CAT_ID":"47741","LAUNCH_DATE":"2021-03-04","MEAN_MOTION":"15.06397151","CLASSIFICATION_TYPE":"U","OBJECT_NAME":"STARLINK-2154","RA_OF_ASC_NODE":"46.9246","REV_AT_EPOCH":"4152","EPHEMERIS_TYPE":"0","OBJECT_ID":"2021-017V","TLE_LINE1":"1 47741U 21017V   21327.52049760  .00000037  00000-0  21377-4 0  9996","APOAPSIS":"548.316","BSTAR":"0.00002137700000","MEAN_MOTION_DDOT":"0.0000000000000","CENTER_NAME":"EARTH","REF_FRAME":"TEME","MEAN_ANOMALY":"294.2425","ARG_OF_PERICENTER":"65.8729","TIME_SYSTEM":"UTC","SITE":"AFETR","COUNTRY_CODE":"US","MEAN_ELEMENT_THEORY":"SGP4","MEAN_MOTION_DOT":"0.00000037","TLE_LINE2":"2 47741  53.0556  46.9246 0001580  65.8729 294.2425 15.06397151 41529","EPOCH":"2021-11-23T12:29:30.992640","ELEMENT_SET_NO":"999","PERIOD":"95.592","RCS_SIZE":"LARGE","DECAY_DATE":null,"INCLINATION":"53.0556","GP_ID":"190338472","OBJECT_TYPE":"PAYLOAD"},{"ARG_OF_PERICENTER":"72.5247","MEAN_ANOMALY":"287.5896","REF_FRAME":"TEME","CENTER_NAME":"EARTH","BSTAR":"-0.00001847800000","MEAN_MOTION_DDOT":"0.0000000000000","APOAPSIS":"548.194","TLE_LINE1":"1 47742U 21017W   21327.59882708 -.00000557  00000-0 -18478-4 0  9998","OBJECT_ID":"2021-017W","EPHEMERIS_TYPE":"0","REV_AT_EPOCH":"4172","OBJECT_NAME":"STARLINK-2156","RA_OF_ASC_NODE":"36.5737","CLASSIFICATION_TYPE":"U","MEAN_MOTION":"15.06398414","LAUNCH_DATE":"2021-03-04","FILE":"3222563","NORAD_CAT_ID":"47742","ECCENTRICITY":"0.00014090","PERIAPSIS":"546.243","SEMIMAJOR_AXIS":"6925.353","OBJECT_TYPE":"PAYLOAD","GP_ID":"190363513","DECAY_DATE":null,"RCS_SIZE":"LARGE","INCLINATION":"53.0567","PERIOD":"95.592","ELEMENT_SET_NO":"999","EPOCH":"2021-11-23T14:22:18.659712","TLE_LINE2":"2 47742  53.0567  36.5737 0001409  72.5247 287.5896 15.06398414 41724","MEAN_MOTION_DOT":"-0.00000557","MEAN_ELEMENT_THEORY":"SGP4","COUNTRY_CODE":"US","SITE":"AFETR","TIME_SYSTEM":"UTC"},{"GP_ID":"190364265","OBJECT_TYPE":"PAYLOAD","DECAY_DATE":null,"RCS_SIZE":"LARGE","INCLINATION":"53.0560","EPOCH":"2021-11-23T14:59:28.158144","PERIOD":"95.593","ELEMENT_SET_NO":"999","SITE":"AFETR","COUNTRY_CODE":"US","TIME_SYSTEM":"UTC","TLE_LINE2":"2 47743  53.0560  36.4371 0000893  64.2244 295.8837 15.06394223 41701","MEAN_MOTION_DOT":"0.00000279","MEAN_ELEMENT_THEORY":"SGP4","MEAN_ANOMALY":"295.8837","REF_FRAME":"TEME","ARG_OF_PERICENTER":"64.2244","OBJECT_ID":"2021-017X","TLE_LINE1":"1 47743U 21017X   21327.62463146  .00000279  00000-0  37634-4 0  9998","EPHEMERIS_TYPE":"0","REV_AT_EPOCH":"4170","CENTER_NAME":"EARTH","APOAPSIS":"547.850","BSTAR":"0.00003763400000","MEAN_MOTION_DDOT":"0.0000000000000","LAUNCH_DATE":"2021-03-04","OBJECT_NAME":"STARLINK-2157","RA_OF_ASC_NODE":"36.4371","MEAN_MOTION":"15.06394223","CLASSIFICATION_TYPE":"U","SEMIMAJOR_AXIS":"6925.366","PERIAPSIS":"546.613","ECCENTRICITY":"0.00008930","NORAD_CAT_ID":"47743","FILE":"3222563"}];
